{"type": "FeatureCollection", "features": [{"type": "Feature", "properties": {"norad_id": 22490, "name": "SCD 1", "group": "resource", "lat": 13.680857771873, "lon": -56.688821327128544, "alt_km": 718.6263425439229, "timestamp": "2025-12-13T20:38:50.651110+00:00", "meta": {"OBJECT_NAME": "SCD 1", "OBJECT_ID": "1993-009B", "EPOCH": "2025-12-13T04:33:38.312064", "MEAN_MOTION": 14.45999655, "ECCENTRICITY": 0.00418149, "INCLINATION": 24.9698, "RA_OF_ASC_NODE": 275.908, "ARG_OF_PERICENTER": 329.8154, "MEAN_ANOMALY": 167.6092, "EPHEMERIS_TYPE": 0, "CLASSIFICATION_TYPE": "U", "NORAD_CAT_ID": 22490, "ELEMENT_SET_NO": 999, "REV_AT_EPOCH": 73416, "BSTAR": 0.00014602471, "MEAN_MOTION_DOT": 7.2e-06, "MEAN_MOTION_DDOT": 0}, "tle": {"line1": "1 22490U 93009B   25347.19002676  .00000720  00000+0  14602-3 0  9994", "line2": "2 22490  24.9698 275.9080 0041814 329.8154 167.6092 14.45999655734167"}}, "geometry": {"type": "Point", "coordinates": [-56.688821327128544, 13.680857771873]}}, {"type": "Feature", "properties": {"norad_id": 25397, "name": "TECHSAT 1B (GO-32)", "group": "resource", "lat": 27.6265296699589, "lon": 155.85185009943262, "alt_km": 809.5537598056499, "timestamp": "2025-12-13T20:38:50.651137+00:00", "meta": {"OBJECT_NAME": "TECHSAT 1B (GO-32)", "OBJECT_ID": "1998-043D", "EPOCH": "2025-12-13T04:45:49.563648", "MEAN_MOTION": 14.24377217, "ECCENTRICITY": 0.00020392, "INCLINATION": 98.992, "RA_OF_ASC_NODE": 330.4211, "ARG_OF_PERICENTER": 56.6374, "MEAN_ANOMALY": 303.4999, "EPHEMERIS_TYPE": 0, "CLASSIFICATION_TYPE": "U", "NORAD_CAT_ID": 25397, "ELEMENT_SET_NO": 999, "REV_AT_EPOCH": 42485, "BSTAR": 9.0488348e-05, "MEAN_MOTION_DOT": 1.63e-06, "MEAN_MOTION_DDOT": 0}, "tle": {"line1": "1 25397U 98043D   25347.19849032  .00000163  00000+0  90488-4 0  9999", "line2": "2 25397  98.9920 330.4211 0002039  56.6374 303.4999 14.24377217424852"}}, "geometry": {"type": "Point", "coordinates": [155.85185009943262, 27.6265296699589]}}, {"type": "Feature", "properties": {"norad_id": 25504, "name": "SCD 2", "group": "resource", "lat": 22.23079162808481, "lon": -163.68677243210217, "alt_km": 737.0441910723785, "timestamp": "2025-12-13T20:38:50.651152+00:00", "meta": {"OBJECT_NAME": "SCD 2", "OBJECT_ID": "1998-060A", "EPOCH": "2025-12-12T17:56:46.046688", "MEAN_MOTION": 14.45423471, "ECCENTRICITY": 0.00166549, "INCLINATION": 24.9933, "RA_OF_ASC_NODE": 141.8465, "ARG_OF_PERICENTER": 313.7297, "MEAN_ANOMALY": 68.7779, "EPHEMERIS_TYPE": 0, "CLASSIFICATION_TYPE": "U", "NORAD_CAT_ID": 25504, "ELEMENT_SET_NO": 999, "REV_AT_EPOCH": 43332, "BSTAR": 0.00011955231, "MEAN_MOTION_DOT": 6.1e-06, "MEAN_MOTION_DDOT": 0}, "tle": {"line1": "1 25504U 98060A   25346.74775517  .00000610  00000+0  11955-3 0  9992", "line2": "2 25504  24.9933 141.8465 0016654 313.7297  68.7779 14.45423471433325"}}, "geometry": {"type": "Point", "coordinates": [-163.68677243210217, 22.23079162808481]}}, {"type": "Feature", "properties": {"norad_id": 25757, "name": "DLR-TUBSAT", "group": "resource", "lat": 56.20743664865546, "lon": 165.56617755129457, "alt_km": 708.6245788409824, "timestamp": "2025-12-13T20:38:50.651165+00:00", "meta": {"OBJECT_NAME": "DLR-TUBSAT", "OBJECT_ID": "1999-029B", "EPOCH": "2025-12-13T06:51:21.121632", "MEAN_MOTION": 14.52358092, "ECCENTRICITY": 0.00139401, "INCLINATION": 98.6564, "RA_OF_ASC_NODE": 331.8162, "ARG_OF_PERICENTER": 191.1187, "MEAN_ANOMALY": 168.9701, "EPHEMERIS_TYPE": 0, "CLASSIFICATION_TYPE": "U", "NORAD_CAT_ID": 25757, "ELEMENT_SET_NO": 999, "REV_AT_EPOCH": 40626, "BSTAR": 7.445849e-05, "MEAN_MOTION_DOT": 2.55e-06, "MEAN_MOTION_DDOT": 0}, "tle": {"line1": "1 25757U 99029B   25347.28566113  .00000255  00000+0  74458-4 0  9991", "line2": "2 25757  98.6564 331.8162 0013940 191.1187 168.9701 14.52358092406264"}}, "geometry": {"type": "Point", "coordinates": [165.56617755129457, 56.20743664865546]}}, {"type": "Feature", "properties": {"norad_id": 25994, "name": "TERRA", "group": "resource", "lat": -40.092889329788946, "lon": -147.27415591010893, "alt_km": 698.378882359063, "timestamp": "2025-12-13T20:38:50.651178+00:00", "meta": {"OBJECT_NAME": "TERRA", "OBJECT_ID": "1999-068A", "EPOCH": "2025-12-13T06:39:55.450368", "MEAN_MOTION": 14.60903225, "ECCENTRICITY": 0.00036061, "INCLINATION": 97.975, "RA_OF_ASC_NODE": 38.9425, "ARG_OF_PERICENTER": 93.4054, "MEAN_ANOMALY": 304.908, "EPHEMERIS_TYPE": 0, "CLASSIFICATION_TYPE": "U", "NORAD_CAT_ID": 25994, "ELEMENT_SET_NO": 999, "REV_AT_EPOCH": 38246, "BSTAR": 0.00017670249, "MEAN_MOTION_DOT": 8.2e-06, "MEAN_MOTION_DDOT": 0}, "tle": {"line1": "1 25994U 99068A   25347.27772512  .00000820  00000+0  17670-3 0  9998", "line2": "2 25994  97.9750  38.9425 0003606  93.4054 304.9080 14.60903225382468"}}, "geometry": {"type": "Point", "coordinates": [-147.27415591010893, -40.092889329788946]}}, {"type": "Feature", "properties": {"norad_id": 27004, "name": "MAROC-TUBSAT", "group": "resource", "lat": -23.726322101085668, "lon": -28.028024636670303, "alt_km": 995.5458218929753, "timestamp": "2025-12-13T20:38:50.651190+00:00", "meta": {"OBJECT_NAME": "MAROC-TUBSAT", "OBJECT_ID": "2001-056D", "EPOCH": "2025-12-13T07:43:28.564032", "MEAN_MOTION": 13.70252919, "ECCENTRICITY": 0.00191036, "INCLINATION": 99.7912, "RA_OF_ASC_NODE": 155.777, "ARG_OF_PERICENTER": 258.5926, "MEAN_ANOMALY": 170.8262, "EPHEMERIS_TYPE": 0, "CLASSIFICATION_TYPE": "U", "NORAD_CAT_ID": 27004, "ELEMENT_SET_NO": 999, "REV_AT_EPOCH": 20073, "BSTAR": 4.7871362e-05, "MEAN_MOTION_DOT": -4e-08, "MEAN_MOTION_DDOT": 0}, "tle": {"line1": "1 27004U 01056D   25347.32185838 -.00000004  00000+0  47871-4 0  9999", "line2": "2 27004  99.7912 155.7770 0019103 258.5926 170.8262 13.70252919200732"}}, "geometry": {"type": "Point", "coordinates": [-28.028024636670303, -23.726322101085668]}}, {"type": "Feature", "properties": {"norad_id": 27424, "name": "AQUA", "group": "resource", "lat": 77.54648891247221, "lon": 170.77769926541086, "alt_km": 679.2393945024687, "timestamp": "2025-12-13T20:38:50.651202+00:00", "meta": {"OBJECT_NAME": "AQUA", "OBJECT_ID": "2002-022A", "EPOCH": "2025-12-13T07:47:38.774112", "MEAN_MOTION": 14.61812555, "ECCENTRICITY": 0.00011513, "INCLINATION": 98.4037, "RA_OF_ASC_NODE": 308.2133, "ARG_OF_PERICENTER": 114.819, "MEAN_ANOMALY": 47.6819, "EPHEMERIS_TYPE": 0, "CLASSIFICATION_TYPE": "U", "NORAD_CAT_ID": 27424, "ELEMENT_SET_NO": 999, "REV_AT_EPOCH": 25611, "BSTAR": 0.00040327894, "MEAN_MOTION_DOT": 1.965e-05, "MEAN_MOTION_DDOT": 0}, "tle": {"line1": "1 27424U 02022A   25347.32475433  .00001965  00000+0  40328-3 0  9997", "line2": "2 27424  98.4037 308.2133 0001151 114.8190  47.6819 14.61812555256112"}}, "geometry": {"type": "Point", "coordinates": [170.77769926541086, 77.54648891247221]}}, {"type": "Feature", "properties": {"norad_id": 28051, "name": "IRS-P6 (RESOURCESAT-1)", "group": "resource", "lat": -40.04735141142994, "lon": -158.7615927071296, "alt_km": 744.3521311199747, "timestamp": "2025-12-13T20:38:50.651213+00:00", "meta": {"OBJECT_NAME": "IRS-P6 (RESOURCESAT-1)", "OBJECT_ID": "2003-046A", "EPOCH": "2025-12-13T06:51:38.390400", "MEAN_MOTION": 14.36074978, "ECCENTRICITY": 0.00642018, "INCLINATION": 98.2179, "RA_OF_ASC_NODE": 27.6673, "ARG_OF_PERICENTER": 179.0346, "MEAN_ANOMALY": 312.8209, "EPHEMERIS_TYPE": 0, "CLASSIFICATION_TYPE": "U", "NORAD_CAT_ID": 28051, "ELEMENT_SET_NO": 999, "REV_AT_EPOCH": 15384, "BSTAR": 7.9536138e-05, "MEAN_MOTION_DOT": 1.96e-06, "MEAN_MOTION_DDOT": 0}, "tle": {"line1": "1 28051U 03046A   25347.28586100  .00000196  00000+0  79536-4 0  9999", "line2": "2 28051  98.2179  27.6673 0064201 179.0346 312.8209 14.36074978153843"}}, "geometry": {"type": "Point", "coordinates": [-158.7615927071296, -40.04735141142994]}}, {"type": "Feature", "properties": {"norad_id": 28220, "name": "SHIYAN-1 (SY-1)", "group": "resource", "lat": 73.50800860674167, "lon": -102.58947376692907, "alt_km": 477.2763400170561, "timestamp": "2025-12-13T20:38:50.651225+00:00", "meta": {"OBJECT_NAME": "SHIYAN-1 (SY-1)", "OBJECT_ID": "2004-012A", "EPOCH": "2025-12-13T04:28:36.600672", "MEAN_MOTION": 15.28164503, "ECCENTRICITY": 0.00056326, "INCLINATION": 97.8937, "RA_OF_ASC_NODE": 48.7508, "ARG_OF_PERICENTER": 323.7301, "MEAN_ANOMALY": 36.3555, "EPHEMERIS_TYPE": 0, "CLASSIFICATION_TYPE": "U", "NORAD_CAT_ID": 28220, "ELEMENT_SET_NO": 999, "REV_AT_EPOCH": 18263, "BSTAR": 0.00075622395, "MEAN_MOTION_DOT": 0.00020725, "MEAN_MOTION_DDOT": 0}, "tle": {"line1": "1 28220U 04012A   25347.18653473  .00020725  00000+0  75622-3 0  9999", "line2": "2 28220  97.8937  48.7508 0005632 323.7301  36.3555 15.28164503182638"}}, "geometry": {"type": "Point", "coordinates": [-102.58947376692907, 73.50800860674167]}}, {"type": "Feature", "properties": {"norad_id": 28376, "name": "AURA", "group": "resource", "lat": -46.46727773390682, "lon": 109.23339771147042, "alt_km": 697.5030921489606, "timestamp": "2025-12-13T20:38:50.651236+00:00", "meta": {"OBJECT_NAME": "AURA", "OBJECT_ID": "2004-026A", "EPOCH": "2025-12-13T06:27:41.675040", "MEAN_MOTION": 14.60949976, "ECCENTRICITY": 0.00012786, "INCLINATION": 98.3182, "RA_OF_ASC_NODE": 297.4983, "ARG_OF_PERICENTER": 94.7795, "MEAN_ANOMALY": 265.3551, "EPHEMERIS_TYPE": 0, "CLASSIFICATION_TYPE": "U", "NORAD_CAT_ID": 28376, "ELEMENT_SET_NO": 999, "REV_AT_EPOCH": 13906, "BSTAR": 0.00040169716, "MEAN_MOTION_DOT": 1.92e-05, "MEAN_MOTION_DDOT": 0}, "tle": {"line1": "1 28376U 04026A   25347.26923235  .00001920  00000+0  40170-3 0  9997", "line2": "2 28376  98.3182 297.4983 0001278  94.7795 265.3551 14.60949976139061"}}, "geometry": {"type": "Point", "coordinates": [109.23339771147042, -46.46727773390682]}}]}